ONEWEB-0372             
1 49298U 21090V   26161.04103718  .00000004  00000+0 -21971-4 0  9992
2 49298  87.9191 275.8660 0001922 101.2431 258.8919 13.20771427228894
ONEWEB-0373             
1 49299U 21090W   26161.06643398  .00000006  00000+0 -16381-4 0  9999
2 49299  87.9189 275.8614 0002031 100.9241 259.2121 13.20770917230085
ONEWEB-0374             
1 49300U 21090X   26161.11589969  .00000234  00000+0  59745-3 0  9993
2 49300  87.8961 291.1067 0002279  87.6501 272.4890 13.14502840226639
ONEWEB-0375             
1 49301U 21090Y   26161.05465566  .00000115  00000+0  25178-3 0  9994
2 49301  87.9190 275.8552 0002396  90.7827 269.3581 13.20770577229589
ONEWEB-0376             
1 49302U 21090Z   26161.13731884 -.00000010  00000+0 -58440-4 0  9998
2 49302  87.9173 306.3707 0001668  98.5478 261.5844 13.19724568225525
ONEWEB-0377             
1 49303U 21090AA  26161.04132816  .00000017  00000+0  10529-4 0  9990
2 49303  87.9190 275.8600 0002176 100.4251 259.7127 13.20772238229575
ONEWEB-0378             
1 49304U 21090AB  26161.06151292  .00000017  00000+0  90831-5 0  9997
2 49304  87.9187 275.8612 0002003  96.4776 263.6585 13.20769863228841
ONEWEB-0379             
1 49305U 21090AC  26161.11113612  .00000151  00000+0  37341-3 0  9992
2 49305  87.8958 291.1186 0001912  96.0775 264.0573 13.14502292226638
ONEWEB-0380             
1 49306U 21090AD  26161.13416835  .00000012  00000+0 -36260-5 0  9996
2 49306  87.9164 306.3771 0002064  97.8810 262.2557 13.19724357225494
ONEWEB-0381             
1 49307U 21090AE  26161.03782167  .00000029  00000+0  40104-4 0  9998
2 49307  87.9191 275.8653 0002127  94.1922 265.9454 13.20771792228887
ONEWEB-0382             
1 49308U 21090AF  26161.02433281  .00000001  00000+0 -30702-4 0  9992
2 49308  87.9188 275.8621 0002050  92.0042 268.1326 13.20770197228874
ONEWEB-0383             
1 49309U 21090AG  26161.10477468 -.00000232  00000+0 -66073-3 0  9993
2 49309  87.8963 291.1109 0001840  95.1936 264.9404 13.14502977226667
ONEWEB-0384             
1 49310U 21090AH  26161.01320592 -.00000067  00000+0 -19776-3 0  9994
2 49310  87.9192 275.9079 0002069  87.1450 272.9920 13.20812498228883
ONEWEB-0385             
1 49311U 21090AJ  26161.01762001 -.00000053  00000+0 -16145-3 0  9992
2 49311  87.9188 275.8688 0002038  94.9340 265.2026 13.20772759228858
ONEWEB-0386             
1 49312U 21090AK  26161.03445358  .00000090  00000+0  19046-3 0  9990
2 49312  87.9192 275.8562 0001981  92.6282 267.5078 13.20771318228875
ONEWEB-0387             
1 49313U 21090AL  26161.01930285  .00000066  00000+0  12964-3 0  9992
2 49313  87.9181 275.8818 0002313  97.5209 262.6187 13.20772432228876
