[{"OBJECT_NAME":"ONEWEB-0372","OBJECT_ID":"2021-090V","EPOCH":"2026-06-10T00:59:05.612352","MEAN_MOTION":13.20771427,"ECCENTRICITY":0.0001922,"INCLINATION":87.9191,"RA_OF_ASC_NODE":275.866,"ARG_OF_PERICENTER":101.2431,"MEAN_ANOMALY":258.8919,"EPHEMERIS_TYPE":0,"CLASSIFICATION_TYPE":"U","NORAD_CAT_ID":49298,"ELEMENT_SET_NO":999,"REV_AT_EPOCH":22889,"BSTAR":-2.1971e-05,"MEAN_MOTION_DOT":4e-08,"MEAN_MOTION_DDOT":0.0},{"OBJECT_NAME":"ONEWEB-0373","OBJECT_ID":"2021-090W","EPOCH":"2026-06-10T01:35:39.895872","MEAN_MOTION":13.20770917,"ECCENTRICITY":0.0002031,"INCLINATION":87.9189,"RA_OF_ASC_NODE":275.8614,"ARG_OF_PERICENTER":100.9241,"MEAN_ANOMALY":259.2121,"EPHEMERIS_TYPE":0,"CLASSIFICATION_TYPE":"U","NORAD_CAT_ID":49299,"ELEMENT_SET_NO":999,"REV_AT_EPOCH":23008,"BSTAR":-1.6381e-05,"MEAN_MOTION_DOT":6e-08,"MEAN_MOTION_DDOT":0.0},{"OBJECT_NAME":"ONEWEB-0374","OBJECT_ID":"2021-090X","EPOCH":"2026-06-10T02:46:53.733216","MEAN_MOTION":13.1450284,"ECCENTRICITY":0.0002279,"INCLINATION":87.8961,"RA_OF_ASC_NODE":291.1067,"ARG_OF_PERICENTER":87.6501,"MEAN_ANOMALY":272.489,"EPHEMERIS_TYPE":0,"CLASSIFICATION_TYPE":"U","NORAD_CAT_ID":49300,"ELEMENT_SET_NO":999,"REV_AT_EPOCH":22663,"BSTAR":0.00059745,"MEAN_MOTION_DOT":2.34e-06,"MEAN_MOTION_DDOT":0.0},{"OBJECT_NAME":"ONEWEB-0375","OBJECT_ID":"2021-090Y","EPOCH":"2026-06-10T01:18:42.249024","MEAN_MOTION":13.20770577,"ECCENTRICITY":0.0002396,"INCLINATION":87.919,"RA_OF_ASC_NODE":275.8552,"ARG_OF_PERICENTER":90.7827,"MEAN_ANOMALY":269.3581,"EPHEMERIS_TYPE":0,"CLASSIFICATION_TYPE":"U","NORAD_CAT_ID":49301,"ELEMENT_SET_NO":999,"REV_AT_EPOCH":22958,"BSTAR":0.00025178,"MEAN_MOTION_DOT":1.15e-06,"MEAN_MOTION_DDOT":0.0},{"OBJECT_NAME":"ONEWEB-0376","OBJECT_ID":"2021-090Z","EPOCH":"2026-06-10T03:17:44.347776","MEAN_MOTION":13.19724568,"ECCENTRICITY":0.0001668,"INCLINATION":87.9173,"RA_OF_ASC_NODE":306.3707,"ARG_OF_PERICENTER":98.5478,"MEAN_ANOMALY":261.5844,"EPHEMERIS_TYPE":0,"CLASSIFICATION_TYPE":"U","NORAD_CAT_ID":49302,"ELEMENT_SET_NO":999,"REV_AT_EPOCH":22552,"BSTAR":-5.844e-05,"MEAN_MOTION_DOT":-1e-07,"MEAN_MOTION_DDOT":0.0},{"OBJECT_NAME":"ONEWEB-0377","OBJECT_ID":"2021-090AA","EPOCH":"2026-06-10T00:59:30.753024","MEAN_MOTION":13.20772238,"ECCENTRICITY":0.0002176,"INCLINATION":87.919,"RA_OF_ASC_NODE":275.86,"ARG_OF_PERICENTER":100.4251,"MEAN_ANOMALY":259.7127,"EPHEMERIS_TYPE":0,"CLASSIFICATION_TYPE":"U","NORAD_CAT_ID":49303,"ELEMENT_SET_NO":999,"REV_AT_EPOCH":22957,"BSTAR":1.0529e-05,"MEAN_MOTION_DOT":1.7e-07,"MEAN_MOTION_DDOT":0.0},{"OBJECT_NAME":"ONEWEB-0378","OBJECT_ID":"2021-090AB","EPOCH":"2026-06-10T01:28:34.716288","MEAN_MOTION":13.20769863,"ECCENTRICITY":0.0002003,"INCLINATION":87.9187,"RA_OF_ASC_NODE":275.8612,"ARG_OF_PERICENTER":96.4776,"MEAN_ANOMALY":263.6585,"EPHEMERIS_TYPE":0,"CLASSIFICATION_TYPE":"U","NORAD_CAT_ID":49304,"ELEMENT_SET_NO":999,"REV_AT_EPOCH":22884,"BSTAR":9.0831e-06,"MEAN_MOTION_DOT":1.7e-07,"MEAN_MOTION_DDOT":0.0},{"OBJECT_NAME":"ONEWEB-0379","OBJECT_ID":"2021-090AC","EPOCH":"2026-06-10T02:40:02.160768","MEAN_MOTION":13.14502292,"ECCENTRICITY":0.0001912,"INCLINATION":87.8958,"RA_OF_ASC_NODE":291.1186,"ARG_OF_PERICENTER":96.0775,"MEAN_ANOMALY":264.0573,"EPHEMERIS_TYPE":0,"CLASSIFICATION_TYPE":"U","NORAD_CAT_ID":49305,"ELEMENT_SET_NO":999,"REV_AT_EPOCH":22663,"BSTAR":0.00037341,"MEAN_MOTION_DOT":1.51e-06,"MEAN_MOTION_DDOT":0.0},{"OBJECT_NAME":"ONEWEB-0380","OBJECT_ID":"2021-090AD","EPOCH":"2026-06-10T03:13:12.145440","MEAN_MOTION":13.19724357,"ECCENTRICITY":0.0002064,"INCLINATION":87.9164,"RA_OF_ASC_NODE":306.3771,"ARG_OF_PERICENTER":97.881,"MEAN_ANOMALY":262.2557,"EPHEMERIS_TYPE":0,"CLASSIFICATION_TYPE":"U","NORAD_CAT_ID":49306,"ELEMENT_SET_NO":999,"REV_AT_EPOCH":22549,"BSTAR":-3.626e-06,"MEAN_MOTION_DOT":1.2e-07,"MEAN_MOTION_DDOT":0.0},{"OBJECT_NAME":"ONEWEB-0381","OBJECT_ID":"2021-090AE","EPOCH":"2026-06-10T00:54:27.792288","MEAN_MOTION":13.20771792,"ECCENTRICITY":0.0002127,"INCLINATION":87.9191,"RA_OF_ASC_NODE":275.8653,"ARG_OF_PERICENTER":94.1922,"MEAN_ANOMALY":265.9454,"EPHEMERIS_TYPE":0,"CLASSIFICATION_TYPE":"U","NORAD_CAT_ID":49307,"ELEMENT_SET_NO":999,"REV_AT_EPOCH":22888,"BSTAR":4.0104e-05,"MEAN_MOTION_DOT":2.9e-07,"MEAN_MOTION_DDOT":0.0},{"OBJECT_NAME":"ONEWEB-0382","OBJECT_ID":"2021-090AF","EPOCH":"2026-06-10T00:35:02.354784","MEAN_MOTION":13.20770197,"ECCENTRICITY":0.000205,"INCLINATION":87.9188,"RA_OF_ASC_NODE":275.8621,"ARG_OF_PERICENTER":92.0042,"MEAN_ANOMALY":268.1326,"EPHEMERIS_TYPE":0,"CLASSIFICATION_TYPE":"U","NORAD_CAT_ID":49308,"ELEMENT_SET_NO":999,"REV_AT_EPOCH":22887,"BSTAR":-3.0702000000000005e-05,"MEAN_MOTION_DOT":1e-08,"MEAN_MOTION_DDOT":0.0},{"OBJECT_NAME":"ONEWEB-0383","OBJECT_ID":"2021-090AG","EPOCH":"2026-06-10T02:30:52.532352","MEAN_MOTION":13.14502977,"ECCENTRICITY":0.000184,"INCLINATION":87.8963,"RA_OF_ASC_NODE":291.1109,"ARG_OF_PERICENTER":95.1936,"MEAN_ANOMALY":264.9404,"EPHEMERIS_TYPE":0,"CLASSIFICATION_TYPE":"U","NORAD_CAT_ID":49309,"ELEMENT_SET_NO":999,"REV_AT_EPOCH":22666,"BSTAR":-0.0006607300000000001,"MEAN_MOTION_DOT":-2.32e-06,"MEAN_MOTION_DDOT":0.0},{"OBJECT_NAME":"ONEWEB-0384","OBJECT_ID":"2021-090AH","EPOCH":"2026-06-10T00:19:00.991488","MEAN_MOTION":13.20812498,"ECCENTRICITY":0.0002069,"INCLINATION":87.9192,"RA_OF_ASC_NODE":275.9079,"ARG_OF_PERICENTER":87.145,"MEAN_ANOMALY":272.992,"EPHEMERIS_TYPE":0,"CLASSIFICATION_TYPE":"U","NORAD_CAT_ID":49310,"ELEMENT_SET_NO":999,"REV_AT_EPOCH":22888,"BSTAR":-0.00019776,"MEAN_MOTION_DOT":-6.7e-07,"MEAN_MOTION_DDOT":0.0},{"OBJECT_NAME":"ONEWEB-0385","OBJECT_ID":"2021-090AJ","EPOCH":"2026-06-10T00:25:22.368864","MEAN_MOTION":13.20772759,"ECCENTRICITY":0.0002038,"INCLINATION":87.9188,"RA_OF_ASC_NODE":275.8688,"ARG_OF_PERICENTER":94.934,"MEAN_ANOMALY":265.2026,"EPHEMERIS_TYPE":0,"CLASSIFICATION_TYPE":"U","NORAD_CAT_ID":49311,"ELEMENT_SET_NO":999,"REV_AT_EPOCH":22885,"BSTAR":-0.00016145000000000002,"MEAN_MOTION_DOT":-5.3e-07,"MEAN_MOTION_DDOT":0.0},{"OBJECT_NAME":"ONEWEB-0386","OBJECT_ID":"2021-090AK","EPOCH":"2026-06-10T00:49:36.789312","MEAN_MOTION":13.20771318,"ECCENTRICITY":0.0001981,"INCLINATION":87.9192,"RA_OF_ASC_NODE":275.8562,"ARG_OF_PERICENTER":92.6282,"MEAN_ANOMALY":267.5078,"EPHEMERIS_TYPE":0,"CLASSIFICATION_TYPE":"U","NORAD_CAT_ID":49312,"ELEMENT_SET_NO":999,"REV_AT_EPOCH":22887,"BSTAR":0.00019046,"MEAN_MOTION_DOT":9e-07,"MEAN_MOTION_DDOT":0.0},{"OBJECT_NAME":"ONEWEB-0387","OBJECT_ID":"2021-090AL","EPOCH":"2026-06-10T00:27:47.766240","MEAN_MOTION":13.20772432,"ECCENTRICITY":0.0002313,"INCLINATION":87.9181,"RA_OF_ASC_NODE":275.8818,"ARG_OF_PERICENTER":97.5209,"MEAN_ANOMALY":262.6187,"EPHEMERIS_TYPE":0,"CLASSIFICATION_TYPE":"U","NORAD_CAT_ID":49313,"ELEMENT_SET_NO":999,"REV_AT_EPOCH":22887,"BSTAR":0.00012964,"MEAN_MOTION_DOT":6.6e-07,"MEAN_MOTION_DDOT":0.0}]